NORAD_CAT_ID,OBJECT_NAME,OBJECT_TYPE,EPOCH,MEAN_MOTION,ECCENTRICITY,INCLINATION,RA_OF_ASC_NODE,ARG_OF_PERICENTER,MEAN_ANOMALY,BSTAR,MEAN_MOTION_DOT,MEAN_MOTION_DDOT,TLE_LINE0,TLE_LINE1,TLE_LINE2,SEMIMAJOR_AXIS,PERIOD,APOGEE,PERIGEE,DECAYED
53706.0,STARLINK-4716,PAYLOAD,2023-08-08 13:46:54,15.08847334,0.0001092,53.2167,162.4783,98.014,262.0976,6.1997e-05,6.99e-06,0.0,0 STARLINK-4716,1 53706U 22107G   23220.57424617  .00000699  00000-0  61997-4 0  9998,2 53706  53.2167 162.4783 0001092  98.0140 262.0976 15.08847334 51575,6917.858,95.437,540.478,538.968,0.0
53706.0,STARLINK-4716,PAYLOAD,2023-08-09 05:40:46,15.08841278,0.0001094,53.2172,159.507,92.5206,267.5911,9.0112e-05,1.147e-05,0.0,0 STARLINK-4716,1 53706U 22107G   23221.23665106  .00001147  00000-0  90112-4 0  9992,2 53706  53.2172 159.5070 0001094  92.5206 267.5911 15.08841278 51672,6917.876,95.437,540.498,538.985,0.0
53706.0,STARLINK-4716,PAYLOAD,2023-08-11 02:11:35,15.08833464,0.0001052,53.2167,151.18,94.9442,265.167,-3.2644e-05,-8.07e-06,0.0,0 STARLINK-4716,1 53706U 22107G   23223.09137762 -.00000807  00000-0 -32644-4 0  9990,2 53706  53.2167 151.1800 0001052  94.9442 265.1670 15.08833464 51952,6917.9,95.438,540.493,539.038,0.0
53706.0,STARLINK-4716,PAYLOAD,2023-08-12 05:13:08,15.0883849,0.0001403,53.2166,146.1247,91.9718,268.1435,0.00011863,1.6e-05,0.0,0 STARLINK-4716,1 53706U 22107G   23224.21745549  .00001600  00000-0  11863-3 0  9992,2 53706  53.2166 146.1247 0001403  91.9718 268.1435 15.08838490 52129,6917.885,95.438,540.721,538.779,0.0
53706.0,STARLINK-4716,PAYLOAD,2023-08-14 00:08:33,15.08837501,0.0001383,53.2168,138.0954,91.8993,268.2158,2.1168e-05,4.9e-07,0.0,0 STARLINK-4716,1 53706U 22107G   23226.00594226  .00000049  00000-0  21168-4 0  9991,2 53706  53.2168 138.0954 0001383  91.8993 268.2158 15.08837501 52391,6917.888,95.438,540.71,538.796,0.0
53706.0,STARLINK-4716,PAYLOAD,2023-08-15 03:10:06,15.08859472,0.0001356,53.2168,133.0387,91.7555,268.3592,-0.00020758,-3.592e-05,0.0,0 STARLINK-4716,1 53706U 22107G   23227.13201825 -.00003592  00000-0 -20758-3 0  9997,2 53706  53.2168 133.0387 0001356  91.7555 268.3592 15.08859472 52562,6917.821,95.436,540.624,538.748,0.0
53706.0,STARLINK-4716,PAYLOAD,2023-08-15 17:28:34,15.08840593,0.0001406,53.2168,130.3619,96.2481,263.8671,6.7268e-05,7.83e-06,0.0,0 STARLINK-4716,1 53706U 22107G   23227.72818053  .00000783  00000-0  67268-4 0  9994,2 53706  53.2168 130.3619 0001406  96.2481 263.8671 15.08840593 52656,6917.879,95.438,540.716,538.771,0.0
53706.0,STARLINK-4716,PAYLOAD,2023-08-16 03:00:52,15.08850224,0.0001398,53.2162,128.58,100.6084,259.5065,0.00010548,1.392e-05,0.0,0 STARLINK-4716,1 53706U 22107G   23228.12561219  .00001392  00000-0  10548-3 0  9993,2 53706  53.2162 128.5800 0001398 100.6084 259.5065 15.08850224 52718,6917.849,95.437,540.681,538.747,0.0
53706.0,STARLINK-4716,PAYLOAD,2023-08-16 23:40:54,15.08847338,0.0001698,53.2146,124.7145,80.0502,280.0682,2.8529e-05,1.66e-06,0.0,0 STARLINK-4716,1 53706U 22107G   23228.98673664  .00000166  00000-0  28529-4 0  9992,2 53706  53.2146 124.7145 0001698  80.0502 280.0682 15.08847338 52849,6917.858,95.437,540.898,538.548,0.0
53706.0,STARLINK-4716,PAYLOAD,2023-08-18 02:42:27,15.08848216,0.0001224,53.2183,119.6576,99.2518,260.8613,-4.1573e-05,-9.5e-06,0.0,0 STARLINK-4716,1 53706U 22107G   23230.11281327 -.00000950  00000-0 -41573-4 0  9998,2 53706  53.2183 119.6576 0001224  99.2518 260.8613 15.08848216 53011,6917.855,95.437,540.567,538.874,0.0
53706.0,STARLINK-4716,PAYLOAD,2023-08-18 17:00:56,15.08830534,0.0001449,53.2167,116.982,88.2645,271.8513,-1.6603e-05,-5.52e-06,0.0,0 STARLINK-4716,1 53706U 22107G   23230.70898656 -.00000552  00000-0 -16603-4 0  9996,2 53706  53.2167 116.9820 0001449  88.2645 271.8513 15.08830534 53108,6917.909,95.438,540.777,538.772,0.0
53706.0,STARLINK-4716,PAYLOAD,2023-08-19 02:33:15,15.08836791,0.000151,53.2158,115.1988,85.2905,274.826,-7.9066e-06,-4.14e-06,0.0,0 STARLINK-4716,1 53706U 22107G   23231.10642412 -.00000414  00000-0 -79066-5 0  9998,2 53706  53.2158 115.1988 0001510  85.2905 274.8260 15.08836791 53168,6917.89,95.438,540.8,538.711,0.0
53706.0,STARLINK-4716,PAYLOAD,2023-08-21 02:14:49,15.08834536,0.0001439,53.2177,106.2769,83.5488,276.5668,0.0002419,3.563e-05,0.0,0 STARLINK-4716,1 53706U 22107G   23233.09362802  .00003563  00000-0  24190-3 0  9992,2 53706  53.2177 106.2769 0001439  83.5488 276.5668 15.08834536 53463,6917.897,95.438,540.758,538.767,0.0
53706.0,STARLINK-4716,PAYLOAD,2023-08-21 19:44:04,15.08887143,0.0001866,53.2186,103.0047,66.4858,293.633,-0.00057455,-9.433e-05,0.0,0 STARLINK-4716,1 53706U 22107G   23233.82227205 -.00009433  00000-0 -57455-3 0  9994,2 53706  53.2186 103.0047 0001866  66.4858 293.6330 15.08887143 53572,6917.736,95.435,540.892,538.31,0.0
53706.0,STARLINK-4716,PAYLOAD,2023-08-22 00:30:13,15.08841668,0.0001331,53.2175,102.1124,86.8309,273.2835,7.765e-05,9.48e-06,0.0,0 STARLINK-4716,1 53706U 22107G   23234.02098860  .00000948  00000-0  77650-4 0  9990,2 53706  53.2175 102.1124 0001331  86.8309 273.2835 15.08841668 53600,6917.875,95.437,540.661,538.82,0.0
53706.0,STARLINK-4716,PAYLOAD,2023-08-24 00:11:47,15.08840812,0.0001238,53.2152,93.1934,102.7442,257.3688,3.2794e-05,2.34e-06,0.0,0 STARLINK-4716,1 53706U 22107G   23236.00819032  .00000234  00000-0  32794-4 0  9990,2 53706  53.2152  93.1934 0001238 102.7442 257.3688 15.08840812 54650,6917.878,95.438,540.599,538.886,0.0
53706.0,STARLINK-4716,PAYLOAD,2023-08-25 00:02:34,15.08846792,0.000124,53.2154,88.7325,90.873,269.2404,8.4532e-05,1.058e-05,0.0,0 STARLINK-4716,1 53706U 22107G   23237.00178386  .00001058  00000-0  84532-4 0  9993,2 53706  53.2154  88.7325 0001240  90.8730 269.2404 15.08846792 54804,6917.86,95.437,540.582,538.867,0.0
53706.0,STARLINK-4716,PAYLOAD,2023-08-25 19:07:12,15.08839067,0.0001458,53.2179,85.1629,84.0319,276.0839,1.0934e-05,-1.14e-06,0.0,0 STARLINK-4716,1 53706U 22107G   23237.79667191 -.00000114  00000-0  10934-4 0  9994,2 53706  53.2179  85.1629 0001458  84.0319 276.0839 15.08839067 54173,6917.883,95.438,540.757,538.74,0.0
53706.0,STARLINK-4716,PAYLOAD,2023-08-25 20:42:35,15.08839593,0.0001492,53.2182,84.8649,88.0399,272.0764,1.9068e-05,1.6e-07,0.0,0 STARLINK-4716,1 53706U 22107G   23237.86291109  .00000016  00000-0  19068-4 0  9991,2 53706  53.2182  84.8649 0001492  88.0399 272.0764 15.08839593 54936,6917.882,95.438,540.779,538.714,0.0
53706.0,STARLINK-4716,PAYLOAD,2023-08-26 14:11:50,15.08834129,0.0001548,53.2181,81.5957,97.0293,263.0876,4.3621e-05,4.06e-06,0.0,0 STARLINK-4716,1 53706U 22107G   23238.59155252  .00000406  00000-0  43621-4 0  9995,2 53706  53.2181  81.5957 0001548  97.0293 263.0876 15.08834129 55043,6917.898,95.438,540.834,538.692,0.0
53706.0,STARLINK-4716,PAYLOAD,2023-08-26 20:33:22,15.08836587,0.0001258,53.218,80.4089,100.3702,259.7432,9.7351e-05,1.262e-05,0.0,0 STARLINK-4716,1 53706U 22107G   23238.85650895  .00001262  00000-0  97351-4 0  9997,2 53706  53.2180  80.4089 0001258 100.3702 259.7432 15.08836587 55081,6917.891,95.438,540.626,538.886,0.0
53706.0,STARLINK-4716,PAYLOAD,2023-08-26 23:44:08,15.08840242,0.0001526,53.2181,79.8106,99.4168,260.6997,7.4464e-05,8.97e-06,0.0,0 STARLINK-4716,1 53706U 22107G   23238.98898871  .00000897  00000-0  74464-4 0  9992,2 53706  53.2181  79.8106 0001526  99.4168 260.6997 15.08840242 54355,6917.88,95.438,540.8,538.689,0.0
53706.0,STARLINK-4716,PAYLOAD,2023-08-27 17:13:23,15.08833907,0.0001528,53.218,76.5388,106.3127,253.8034,2.6501e-05,1.34e-06,0.0,0 STARLINK-4716,1 53706U 22107G   23239.71763602  .00000134  00000-0  26501-4 0  9990,2 53706  53.2180  76.5388 0001528 106.3127 253.8034 15.08833907 54463,6917.899,95.438,540.821,538.707,0.0
53706.0,STARLINK-4716,PAYLOAD,2023-08-27 18:48:46,15.08835567,0.0001501,53.2182,76.2415,102.8501,257.2659,7.4168e-06,-1.7e-06,0.0,0 STARLINK-4716,1 53706U 22107G   23239.78387595 -.00000170  00000-0  74168-5 0  9994,2 53706  53.2182  76.2415 0001501 102.8501 257.2659 15.08835567 55221,6917.894,95.438,540.797,538.721,0.0
53706.0,STARLINK-4716,PAYLOAD,2023-08-28 20:14:58,15.0882793,0.0001495,53.2187,71.4872,95.8055,264.3108,-4.8554e-05,-1.06e-05,0.0,0 STARLINK-4716,1 53706U 22107G   23240.84372990 -.00001060  00000-0 -48554-4 0  9995,2 53706  53.2187  71.4872 0001495  95.8055 264.3108 15.08827930 55387,6917.917,95.438,540.817,538.748,0.0
53706.0,STARLINK-4716,PAYLOAD,2023-08-28 23:25:44,15.08828604,0.0001435,53.2179,70.8892,85.4725,274.6431,-4.4422e-05,-9.95e-06,0.0,0 STARLINK-4716,1 53706U 22107G   23240.97621054 -.00000995  00000-0 -44422-4 0  9993,2 53706  53.2179  70.8892 0001435  85.4725 274.6431 15.08828604 54657,6917.915,95.438,540.773,538.788,0.0
53706.0,STARLINK-4716,PAYLOAD,2023-08-29 16:54:58,15.08839787,0.0001377,53.2178,67.6203,92.4693,267.6457,0.00011118,1.482e-05,0.0,0 STARLINK-4716,1 53706U 22107G   23241.70484126  .00001482  00000-0  11118-3 0  9997,2 53706  53.2178  67.6203 0001377  92.4693 267.6457 15.08839787 54769,6917.881,95.438,540.699,538.793,0.0
53706.0,STARLINK-4716,PAYLOAD,2023-08-29 20:05:44,15.08844153,0.0001304,53.2177,67.0259,88.4453,271.6689,0.00012681,1.731e-05,0.0,0 STARLINK-4716,1 53706U 22107G   23241.83731863  .00001731  00000-0  12681-3 0  9997,2 53706  53.2177  67.0259 0001304  88.4453 271.6689 15.08844153 55533,6917.868,95.437,540.635,538.831,0.0
53706.0,STARLINK-4716,PAYLOAD,2023-08-30 18:21:08,15.08834254,0.0001912,53.2177,62.8654,68.8105,291.3092,0.00039676,6.031e-05,0.0,0 STARLINK-4716,1 53706U 22107G   23242.76468109  .00006031  00000-0  39676-3 0  9991,2 53706  53.2177  62.8654 0001912  68.8105 291.3092 15.08834254 55679,6917.898,95.438,541.086,538.44,0.0
53706.0,STARLINK-4716,PAYLOAD,2023-08-31 11:50:16,15.08940458,8.13e-05,53.2176,59.5943,105.5816,254.5266,0.00056045,8.667e-05,0.0,0 STARLINK-4716,1 53706U 22107G   23243.49324885  .00008667  00000-0  56045-3 0  9990,2 53706  53.2176  59.5943 0000813 105.5816 254.5266 15.08940458 55037,6917.573,95.431,540.001,538.876,0.0
